{
  "type": "FeatureCollection",
  "features": [
    {
      "type": "Feature",
      "properties": {
        "norad_id": 40894,
        "name": "GAOFEN-9 01",
        "group": "resource",
        "lat": -68.76497438794884,
        "lon": 177.47143113153578,
        "alt_km": 649.0202673084868,
        "timestamp": "2025-12-04T09:47:37.179943+00:00",
        "meta_object_name": "GAOFEN-9 01",
        "meta_object_id": "2015-047A",
        "meta_epoch": "2025-12-04T00:34:11.453952",
        "meta_mean_motion": 14.82388441,
        "meta_eccentricity": 0.00289046,
        "meta_inclination": 97.6555,
        "meta_ra_of_asc_node": 17.3555,
        "meta_arg_of_pericenter": 61.7366,
        "meta_mean_anomaly": 298.676,
        "meta_ephemeris_type": 0,
        "meta_classification_type": "U",
        "meta_norad_cat_id": 40894,
        "meta_element_set_no": 999,
        "meta_rev_at_epoch": 55127,
        "meta_bstar": 0.00028319899,
        "meta_mean_motion_dot": 2.233e-05,
        "meta_mean_motion_ddot": 0,
        "tle_line1": "1 40894U 15047A   25338.02374368  .00002233  00000+0  28320-3 0  9993",
        "tle_line2": "2 40894  97.6555  17.3555 0028904  61.7366 298.6760 14.82388441551273"
      },
      "geometry": {
        "type": "Point",
        "coordinates": [
          177.47143113153578,
          -68.76497438794884
        ]
      }
    },
    {
      "type": "Feature",
      "properties": {
        "norad_id": 41026,
        "name": "YAOGAN-28",
        "group": "resource",
        "lat": -48.39855543486656,
        "lon": -71.84105316928873,
        "alt_km": 498.19336642436065,
        "timestamp": "2025-12-04T09:47:37.179953+00:00",
        "meta_object_name": "YAOGAN-28",
        "meta_object_id": "2015-064A",
        "meta_epoch": "2025-12-04T04:03:58.969728",
        "meta_mean_motion": 15.24121304,
        "meta_eccentricity": 0.001201,
        "meta_inclination": 97.28,
        "meta_ra_of_asc_node": 116.2054,
        "meta_arg_of_pericenter": 154.4362,
        "meta_mean_anomaly": 205.7472,
        "meta_ephemeris_type": 0,
        "meta_classification_type": "U",
        "meta_norad_cat_id": 41026,
        "meta_element_set_no": 999,
        "meta_rev_at_epoch": 56094,
        "meta_bstar": 0.0007396,
        "meta_mean_motion_dot": 0.00017972,
        "meta_mean_motion_ddot": 0,
        "tle_line1": "1 41026U 15064A   25338.16943252  .00017972  00000+0  73960-3 0  9995",
        "tle_line2": "2 41026  97.2800 116.2054 0012010 154.4362 205.7472 15.24121304560943"
      },
      "geometry": {
        "type": "Point",
        "coordinates": [
          -71.84105316928873,
          -48.39855543486656
        ]
      }
    },
    {
      "type": "Feature",
      "properties": {
        "norad_id": 41038,
        "name": "YAOGAN-29",
        "group": "resource",
        "lat": 55.44945801383821,
        "lon": -166.62772558645858,
        "alt_km": 615.2692037493534,
        "timestamp": "2025-12-04T09:47:37.179963+00:00",
        "meta_object_name": "YAOGAN-29",
        "meta_object_id": "2015-069A",
        "meta_epoch": "2025-12-03T23:31:16.097088",
        "meta_mean_motion": 14.82866814,
        "meta_eccentricity": 7.208e-05,
        "meta_inclination": 98.0228,
        "meta_ra_of_asc_node": 1.1233,
        "meta_arg_of_pericenter": 4.8914,
        "meta_mean_anomaly": 355.2306,
        "meta_ephemeris_type": 0,
        "meta_classification_type": "U",
        "meta_norad_cat_id": 41038,
        "meta_element_set_no": 999,
        "meta_rev_at_epoch": 54169,
        "meta_bstar": 0.00010813084,
        "meta_mean_motion_dot": 8.22e-06,
        "meta_mean_motion_ddot": 0,
        "tle_line1": "1 41038U 15069A   25337.98004742  .00000822  00000+0  10813-3 0  9998",
        "tle_line2": "2 41038  98.0228   1.1233 0000720   4.8914 355.2306 14.82866814541699"
      },
      "geometry": {
        "type": "Point",
        "coordinates": [
          -166.62772558645858,
          55.44945801383821
        ]
      }
    },
    {
      "type": "Feature",
      "properties": {
        "norad_id": 41167,
        "name": "KENT RIDGE 1",
        "group": "resource",
        "lat": 9.356589489455345,
        "lon": 54.92323002412736,
        "alt_km": 500.82709655049075,
        "timestamp": "2025-12-04T09:47:37.179973+00:00",
        "meta_object_name": "KENT RIDGE 1",
        "meta_object_id": "2015-077B",
        "meta_epoch": "2025-12-04T01:18:41.430816",
        "meta_mean_motion": 15.21528347,
        "meta_eccentricity": 0.0008643,
        "meta_inclination": 14.9803,
        "meta_ra_of_asc_node": 275.5817,
        "meta_arg_of_pericenter": 7.7804,
        "meta_mean_anomaly": 352.2651,
        "meta_ephemeris_type": 0,
        "meta_classification_type": "U",
        "meta_norad_cat_id": 41167,
        "meta_element_set_no": 999,
        "meta_rev_at_epoch": 55131,
        "meta_bstar": 0.00031346,
        "meta_mean_motion_dot": 8.044e-05,
        "meta_mean_motion_ddot": 0,
        "tle_line1": "1 41167U 15077B   25338.05464619  .00008044  00000+0  31346-3 0  9990",
        "tle_line2": "2 41167  14.9803 275.5817 0008643   7.7804 352.2651 15.21528347551315"
      },
      "geometry": {
        "type": "Point",
        "coordinates": [
          54.92323002412736,
          9.356589489455345
        ]
      }
    },
    {
      "type": "Feature",
      "properties": {
        "norad_id": 41194,
        "name": "GAOFEN-4",
        "group": "resource",
        "lat": -0.13084854878504232,
        "lon": -33.91654599721463,
        "alt_km": 35797.836411749624,
        "timestamp": "2025-12-04T09:47:37.179986+00:00",
        "meta_object_name": "GAOFEN-4",
        "meta_object_id": "2015-083A",
        "meta_epoch": "2025-12-03T20:03:59.764032",
        "meta_mean_motion": 1.00273387,
        "meta_eccentricity": 0.00037375,
        "meta_inclination": 0.146,
        "meta_ra_of_asc_node": 80.7672,
        "meta_arg_of_pericenter": 104.6053,
        "meta_mean_anomaly": 294.2325,
        "meta_ephemeris_type": 0,
        "meta_classification_type": "U",
        "meta_norad_cat_id": 41194,
        "meta_element_set_no": 999,
        "meta_rev_at_epoch": 3657,
        "meta_bstar": 0,
        "meta_mean_motion_dot": -3.18e-06,
        "meta_mean_motion_ddot": 0,
        "tle_line1": "1 41194U 15083A   25337.83610838 -.00000318  00000+0  00000+0 0  9994",
        "tle_line2": "2 41194   0.1460  80.7672 0003737 104.6053 294.2325  1.00273387 36570"
      },
      "geometry": {
        "type": "Point",
        "coordinates": [
          -33.91654599721463,
          -0.13084854878504232
        ]
      }
    },
    {
      "type": "Feature",
      "properties": {
        "norad_id": 41240,
        "name": "JASON-3",
        "group": "resource",
        "lat": -30.924081714831754,
        "lon": 10.789913020296266,
        "alt_km": 1312.8999210481843,
        "timestamp": "2025-12-04T09:47:37.179997+00:00",
        "meta_object_name": "JASON-3",
        "meta_object_id": "2016-002A",
        "meta_epoch": "2025-12-04T03:05:32.595936",
        "meta_mean_motion": 12.87626078,
        "meta_eccentricity": 0.0007138,
        "meta_inclination": 66.0392,
        "meta_ra_of_asc_node": 175.9281,
        "meta_arg_of_pericenter": 270.3407,
        "meta_mean_anomaly": 89.6794,
        "meta_ephemeris_type": 0,
        "meta_classification_type": "U",
        "meta_norad_cat_id": 41240,
        "meta_element_set_no": 999,
        "meta_rev_at_epoch": 46213,
        "meta_bstar": 0.00018757,
        "meta_mean_motion_dot": -1.5e-07,
        "meta_mean_motion_ddot": 0,
        "tle_line1": "1 41240U 16002A   25338.12884949 -.00000015  00000+0  18757-3 0  9993",
        "tle_line2": "2 41240  66.0392 175.9281 0007138 270.3407  89.6794 12.87626078462130"
      },
      "geometry": {
        "type": "Point",
        "coordinates": [
          10.789913020296266,
          -30.924081714831754
        ]
      }
    },
    {
      "type": "Feature",
      "properties": {
        "norad_id": 41335,
        "name": "SENTINEL-3A",
        "group": "resource",
        "lat": 62.46627115527088,
        "lon": 26.619988748130048,
        "alt_km": 795.8980344374395,
        "timestamp": "2025-12-04T09:47:37.180007+00:00",
        "meta_object_name": "SENTINEL-3A",
        "meta_object_id": "2016-011A",
        "meta_epoch": "2025-12-04T04:26:47.854176",
        "meta_mean_motion": 14.26741561,
        "meta_eccentricity": 9.83e-05,
        "meta_inclination": 98.6218,
        "meta_ra_of_asc_node": 43.3206,
        "meta_arg_of_pericenter": 91.3246,
        "meta_mean_anomaly": 268.8047,
        "meta_ephemeris_type": 0,
        "meta_classification_type": "U",
        "meta_norad_cat_id": 41335,
        "meta_element_set_no": 999,
        "meta_rev_at_epoch": 51025,
        "meta_bstar": 0.00014542,
        "meta_mean_motion_dot": 3.08e-06,
        "meta_mean_motion_ddot": 0,
        "tle_line1": "1 41335U 16011A   25338.18527609  .00000308  00000+0  14542-3 0  9993",
        "tle_line2": "2 41335  98.6218  43.3206 0000983  91.3246 268.8047 14.26741561510250"
      },
      "geometry": {
        "type": "Point",
        "coordinates": [
          26.619988748130048,
          62.46627115527088
        ]
      }
    }
  ]
}